{
  "norad_id": 62977,
  "name": "HULIANWANG DIGUI-17",
  "history": [
    {
      "epoch": "2026-03-28T21:26:36.035232Z",
      "apogee_km": 1150.081899810235,
      "perigee_km": 1148.54900939238,
      "latitude_deg": -8.679866005072196e-06,
      "longitude_deg": 15.596463221961528,
      "height_km": 1150.1563266791775,
      "semi_major_axis_km": 7527.452454601307,
      "eccentricity": 0.00010182,
      "inclination_deg": 50.0052,
      "raan_deg": 163.554,
      "arg_perigee_deg": 244.2128,
      "mean_anomaly_deg": 115.8639,
      "mean_motion_rev_day": 13.29323647
    },
    {
      "epoch": "2026-03-29T04:39:38.102400Z",
      "apogee_km": 1150.0845639180097,
      "perigee_km": 1148.5459526764143,
      "latitude_deg": 1.0865153784164087e-05,
      "longitude_deg": -94.03703515795317,
      "height_km": 1150.145435224427,
      "semi_major_axis_km": 7527.452258297212,
      "eccentricity": 0.0001022,
      "inclination_deg": 50.0052,
      "raan_deg": 162.4755,
      "arg_perigee_deg": 245.1971,
      "mean_anomaly_deg": 114.8795,
      "mean_motion_rev_day": 13.29323699
    },
    {
      "epoch": "2026-03-30T04:06:59.827392Z",
      "apogee_km": 1150.0865314428502,
      "perigee_km": 1148.5434037894893,
      "latitude_deg": 3.377406390155622e-05,
      "longitude_deg": -90.34584134511313,
      "height_km": 1150.099928519346,
      "semi_major_axis_km": 7527.45196761617,
      "eccentricity": 0.0001025,
      "inclination_deg": 50.0051,
      "raan_deg": 158.9705,
      "arg_perigee_deg": 248.9217,
      "mean_anomaly_deg": 111.1546,
      "mean_motion_rev_day": 13.29323776
    },
    {
      "epoch": "2026-03-30T05:55:15.343104Z",
      "apogee_km": 1150.087212454201,
      "perigee_km": 1148.5425793251661,
      "latitude_deg": -2.513554081244625e-05,
      "longitude_deg": -117.7543396040411,
      "height_km": 1150.097945311197,
      "semi_major_axis_km": 7527.451895889683,
      "eccentricity": 0.0001026,
      "inclination_deg": 50.0051,
      "raan_deg": 158.7008,
      "arg_perigee_deg": 249.0958,
      "mean_anomaly_deg": 110.9804,
      "mean_motion_rev_day": 13.29323795
    },
    {
      "epoch": "2026-03-30T13:08:17.411136Z",
      "apogee_km": 1150.0918867904747,
      "perigee_km": 1148.5377690860796,
      "latitude_deg": 1.1481559951788398e-05,
      "longitude_deg": 132.61227294633304,
      "height_km": 1150.0854466796734,
      "semi_major_axis_km": 7527.451827938277,
      "eccentricity": 0.00010323,
      "inclination_deg": 50.005,
      "raan_deg": 157.6224,
      "arg_perigee_deg": 250.2064,
      "mean_anomaly_deg": 109.8697,
      "mean_motion_rev_day": 13.29323813
    },
    {
      "epoch": "2026-03-30T16:44:48.444288Z",
      "apogee_km": 1150.0942240760114,
      "perigee_km": 1148.5354393506996,
      "latitude_deg": -3.445684156469859e-06,
      "longitude_deg": 77.79545509017571,
      "height_km": 1150.077502132912,
      "semi_major_axis_km": 7527.451831713355,
      "eccentricity": 0.00010354,
      "inclination_deg": 50.005,
      "raan_deg": 157.0831,
      "arg_perigee_deg": 250.8884,
      "mean_anomaly_deg": 109.1876,
      "mean_motion_rev_day": 13.29323812
    },
    {
      "epoch": "2026-03-31T16:12:10.159776Z",
      "apogee_km": 1150.1020861352927,
      "perigee_km": 1148.5273432365802,
      "latitude_deg": 2.1807792300196093e-05,
      "longitude_deg": 81.48659125790518,
      "height_km": 1150.0344324802265,
      "semi_major_axis_km": 7527.451714685936,
      "eccentricity": 0.0001046,
      "inclination_deg": 50.0049,
      "raan_deg": 153.578,
      "arg_perigee_deg": 254.3645,
      "mean_anomaly_deg": 105.7112,
      "mean_motion_rev_day": 13.29323843
    },
    {
      "epoch": "2026-04-01T17:27:47.370240Z",
      "apogee_km": 1150.1127052777674,
      "perigee_km": 1148.515380166501,
      "latitude_deg": -9.48982948523398e-07,
      "longitude_deg": 57.76932486972293,
      "height_km": 1149.981415225223,
      "semi_major_axis_km": 7527.451042722134,
      "eccentricity": 0.0001061,
      "inclination_deg": 50.0049,
      "raan_deg": 149.8032,
      "arg_perigee_deg": 258.4561,
      "mean_anomaly_deg": 101.6192,
      "mean_motion_rev_day": 13.29324021
    },
    {
      "epoch": "2026-04-02T20:31:40.080864Z",
      "apogee_km": 1150.1233772751311,
      "perigee_km": 1148.5034699439711,
      "latitude_deg": 3.5446081276513085e-06,
      "longitude_deg": 6.643796608728363,
      "height_km": 1149.9304200223144,
      "semi_major_axis_km": 7527.450423609551,
      "eccentricity": 0.0001076,
      "inclination_deg": 50.0048,
      "raan_deg": 145.7588,
      "arg_perigee_deg": 262.235,
      "mean_anomaly_deg": 97.84,
      "mean_motion_rev_day": 13.29324185
    },
    {
      "epoch": "2026-04-02T22:19:55.596576Z",
      "apogee_km": 1150.123655720251,
      "perigee_km": 1148.5031461979333,
      "latitude_deg": 1.1254600346462583e-05,
      "longitude_deg": -20.764546078722077,
      "height_km": 1149.9277865221832,
      "semi_major_axis_km": 7527.450400959092,
      "eccentricity": 0.00010764,
      "inclination_deg": 50.0048,
      "raan_deg": 145.4892,
      "arg_perigee_deg": 262.4242,
      "mean_anomaly_deg": 97.6508,
      "mean_motion_rev_day": 13.29324191
    },
    {
      "epoch": "2026-04-03T16:22:30.733824Z",
      "apogee_km": 1150.1252768393306,
      "perigee_km": 1148.500853115309,
      "latitude_deg": 1.981424940127481e-06,
      "longitude_deg": 65.15173745131338,
      "height_km": 1149.8937867433342,
      "semi_major_axis_km": 7527.45006497732,
      "eccentricity": 0.0001079,
      "inclination_deg": 50.0047,
      "raan_deg": 142.7929,
      "arg_perigee_deg": 264.8322,
      "mean_anomaly_deg": 95.2427,
      "mean_motion_rev_day": 13.2932428
    },
    {
      "epoch": "2026-04-04T15:49:52.406112Z",
      "apogee_km": 1150.1332814238358,
      "perigee_km": 1148.4922973697476,
      "latitude_deg": -1.9020821865907335e-05,
      "longitude_deg": 68.84291355496357,
      "height_km": 1149.8427092154614,
      "semi_major_axis_km": 7527.449789396792,
      "eccentricity": 0.000109,
      "inclination_deg": 50.0046,
      "raan_deg": 139.2877,
      "arg_perigee_deg": 268.4393,
      "mean_anomaly_deg": 91.6354,
      "mean_motion_rev_day": 13.29324353
    },
    {
      "epoch": "2026-04-05T13:28:58.565280Z",
      "apogee_km": 1150.142069191973,
      "perigee_km": 1148.4831698448224,
      "latitude_deg": 8.139072373661713e-06,
      "longitude_deg": 99.94266752601466,
      "height_km": 1149.7932958875,
      "semi_major_axis_km": 7527.449619518397,
      "eccentricity": 0.00011019,
      "inclination_deg": 50.0046,
      "raan_deg": 136.0523,
      "arg_perigee_deg": 271.859,
      "mean_anomaly_deg": 88.2156,
      "mean_motion_rev_day": 13.29324398
    },
    {
      "epoch": "2026-04-05T18:53:45.097728Z",
      "apogee_km": 1150.1410972332242,
      "perigee_km": 1148.4835528918466,
      "latitude_deg": -4.4107124044704375e-06,
      "longitude_deg": 17.717570488296925,
      "height_km": 1149.7825434232022,
      "semi_major_axis_km": 7527.4493250625355,
      "eccentricity": 0.0001101,
      "inclination_deg": 50.0046,
      "raan_deg": 135.2434,
      "arg_perigee_deg": 272.5841,
      "mean_anomaly_deg": 87.4905,
      "mean_motion_rev_day": 13.29324476
    },
    {
      "epoch": "2026-04-06T05:43:18.173856Z",
      "apogee_km": 1150.1428995748984,
      "perigee_km": 1148.4814409940327,
      "latitude_deg": 4.90016893943164e-06,
      "longitude_deg": -146.7326419576859,
      "height_km": 1149.7615883487529,
      "semi_major_axis_km": 7527.449170284465,
      "eccentricity": 0.00011036,
      "inclination_deg": 50.0045,
      "raan_deg": 133.6256,
      "arg_perigee_deg": 274.0144,
      "mean_anomaly_deg": 86.0602,
      "mean_motion_rev_day": 13.29324517
    },
    {
      "epoch": "2026-04-07T12:23:41.889984Z",
      "apogee_km": 1150.1499366805456,
      "perigee_km": 1148.473724374965,
      "latitude_deg": -8.990825078136582e-06,
      "longitude_deg": 107.32522004371631,
      "height_km": 1149.6859170880382,
      "semi_major_axis_km": 7527.4488305277555,
      "eccentricity": 0.00011134,
      "inclination_deg": 50.0044,
      "raan_deg": 129.042,
      "arg_perigee_deg": 279.1643,
      "mean_anomaly_deg": 80.9103,
      "mean_motion_rev_day": 13.29324607
    },
    {
      "epoch": "2026-04-07T19:36:43.933824Z",
      "apogee_km": 1150.152491766792,
      "perigee_km": 1148.470859732629,
      "latitude_deg": -7.44228760741414e-06,
      "longitude_deg": -2.308196830120828,
      "height_km": 1149.6703131109114,
      "semi_major_axis_km": 7527.448675749711,
      "eccentricity": 0.0001117,
      "inclination_deg": 50.0044,
      "raan_deg": 127.9635,
      "arg_perigee_deg": 280.2025,
      "mean_anomaly_deg": 79.8721,
      "mean_motion_rev_day": 13.29324648
    },
    {
      "epoch": "2026-04-08T13:39:19.051200Z",
      "apogee_km": 1150.1576283674622,
      "perigee_km": 1148.465156870865,
      "latitude_deg": 4.09840675944908e-05,
      "longitude_deg": 83.60821559784274,
      "height_km": 1149.6307152514075,
      "semi_major_axis_km": 7527.448392619163,
      "eccentricity": 0.00011242,
      "inclination_deg": 50.0044,
      "raan_deg": 125.2672,
      "arg_perigee_deg": 282.8526,
      "mean_anomaly_deg": 77.2221,
      "mean_motion_rev_day": 13.29324723
    },
    {
      "epoch": "2026-04-09T20:19:42.744000Z",
      "apogee_km": 1150.1676537979401,
      "perigee_km": 1148.4544066262624,
      "latitude_deg": -5.0014207067493976e-05,
      "longitude_deg": -22.334089686676613,
      "height_km": 1149.5616514051735,
      "semi_major_axis_km": 7527.448030212101,
      "eccentricity": 0.0001138,
      "inclination_deg": 50.0043,
      "raan_deg": 120.6834,
      "arg_perigee_deg": 287.4539,
      "mean_anomaly_deg": 72.6208,
      "mean_motion_rev_day": 13.29324819
    }
  ]
}